0 COSMOS 1829
1 17584U 87026C   13280.54031406  .00000025  00000-0  79128-4 0  2839
2 17584 082.5700 315.2405 0001218 120.6752 047.5032 12.62599791224622
0 COSMOS 1829
1 17584U 87026C   13282.58895939  .00000048  00000-0  20680-3 0  2848
2 17584 082.5698 313.9310 0001193 119.4978 355.8675 12.62599580224888
0 COSMOS 1829
1 17584U 87026C   13287.51058641  .00000030  00000-0  11040-3 0  2860
2 17584 082.5686 310.7849 0001289 117.3353 037.4354 12.62599899225507
0 COSMOS 1829
1 17584U 87026C   13289.57571260  .00000014  00000-0  21417-4 0  2878
2 17584 082.5685 309.4644 0001311 116.1977 060.6338 12.62600198225762
0 COSMOS 1829
1 17584U 87026C   13292.16705892 -.00000007  00000-0 -96261-4 0  2881
2 17584 082.5686 307.8074 0001340 115.3393 314.2222 12.62600124226093
0 COSMOS 1829
1 17584U 87026C   13294.48676720  .00000017  00000-0  32993-4 0  2897
2 17584 082.5687 306.3242 0001340 113.1055 055.1092 12.62599921226386
